GLOBALSTAR M063         
1 26081U 00008A   25031.46562602 -.00000133  00000+0 -74163-3 0  9999
2 26081  51.9955 111.6470 0004964  60.2474 312.7317 11.86167233141355
GLOBALSTAR M062         
1 26082U 00008B   25031.54233329 -.00000075  00000+0  16492-3 0  9995
2 26082  51.9839 137.6114 0007418 174.6980 198.0795 12.43458576479625
GLOBALSTAR M060         
1 26083U 00008C   25031.37772278 -.00000123  00000+0 -31821-3 0  9996
2 26083  52.0022  78.7483 0003573 198.0252 174.6006 12.17652302135703
GLOBALSTAR M064         
1 26084U 00008D   25031.56568451 -.00000095  00000+0 -17281-3 0  9996
2 26084  51.9998 211.8219 0002327 127.3998 232.7047 11.88529888150852
GLOBALSTAR M065         
1 31571U 07020A   25031.47044008 -.00000098  00000+0  34606-4 0  9994
2 31571  51.9900 282.3908 0010755   8.9127 162.4918 12.61990400816143
GLOBALSTAR M069         
1 31573U 07020C   25031.61318067 -.00000077  00000+0  15382-3 0  9997
2 31573  51.9930 244.1647 0001941  56.9917 337.7675 12.47307369817183
GLOBALSTAR M072         
1 31574U 07020D   25031.40271171 -.00000078  00000+0  80898-4 0  9995
2 31574  52.0105 356.0854 0001146  67.4034 108.4606 11.91772331815152
GLOBALSTAR M071         
1 31576U 07020F   25031.59820519 -.00000020  00000+0  70095-3 0  9997
2 31576  52.0043 253.5702 0001088 118.7958 283.0376 12.18247782478299
